IRIDIUM 116             
1 43072U 17083C   25310.30457253  .00000362  00000+0  12218-3 0  9992
2 43072  86.3977  55.1600 0001913 102.8354 257.3055 14.34219187412220
IRIDIUM 130             
1 43073U 17083D   25310.27285976  .00000359  00000+0  12130-3 0  9999
2 43073  86.3985  55.4270 0001717  95.3109 264.8282 14.34218659412163
IRIDIUM 151             
1 43074U 17083E   25310.31725688  .00000303  00000+0  10112-3 0  9991
2 43074  86.3978  55.2075 0002001  99.8077 260.3345 14.34219754412198
IRIDIUM 134             
1 43075U 17083F   25310.28554552  .00000432  00000+0  14710-3 0  9999
2 43075  86.3979  55.2257 0001822  93.9361 266.2043 14.34219177412158
IRIDIUM 137             
1 43076U 17083G   25310.29822907  .00000342  00000+0  11504-3 0  9991
2 43076  86.3982  55.3088 0002146 110.7486 249.3940 14.34217836412228
IRIDIUM 141             
1 43077U 17083H   25310.29188826  .00000186  00000+0  59195-4 0  9992
2 43077  86.3978  55.1546 0002207  93.3025 266.8423 14.34218698412221
IRIDIUM 153             
1 43078U 17083J   25310.24406791 -.00000065  00000+0 -30289-4 0  9993
2 43078  86.4004  23.6629 0002198  87.1593 272.9854 14.34217692413326
IRIDIUM 131             
1 43079U 17083K   25310.27920356  .00000140  00000+0  42943-4 0  9997
2 43079  86.3982  55.3311 0002140  94.9467 265.1973 14.34218273412156
